STARLINK-1434           
1 45712U 20035BH  26068.24137979  .00054112  00000+0  20295-2 0  9995
2 45712  53.0547  22.1128 0005343  88.0400 272.1210 15.26724568319325
STARLINK-33871          
1 63994U 25101A   26068.18039046  .00040629  00000+0  14774-2 0  9998
2 63994  43.0021   1.1587 0001047 262.5592  97.5140 15.27590821 46903
